{
    "links": {
        "self": "http://www.neowsapp.com/rest/v1/neo/3368495?api_key=iIulBulltgU6a56xZRHN4H3l9WmuAYTsLGpBGhQ2"
    },
    "id": "3368495",
    "neo_reference_id": "3368495",
    "name": "(2007 DY)",
    "designation": "2007 DY",
    "nasa_jpl_url": "http://ssd.jpl.nasa.gov/sbdb.cgi?sstr=3368495",
    "absolute_magnitude_h": 19.6,
    "estimated_diameter": {
        "kilometers": {
            "estimated_diameter_min": 0.3195618867,
            "estimated_diameter_max": 0.7145621017
        },
        "meters": {
            "estimated_diameter_min": 319.5618867213,
            "estimated_diameter_max": 714.5621017269
        },
        "miles": {
            "estimated_diameter_min": 0.1985664891,
            "estimated_diameter_max": 0.4440081677
        },
        "feet": {
            "estimated_diameter_min": 1048.4314204307,
            "estimated_diameter_max": 2344.3639258298
        }
    },
    "is_potentially_hazardous_asteroid": false,
    "close_approach_data": [
        {
            "close_approach_date": "1946-02-16",
            "close_approach_date_full": "1946-Feb-16 09:20",
            "epoch_date_close_approach": -753374400000,
            "relative_velocity": {
                "kilometers_per_second": "22.5802811218",
                "kilometers_per_hour": "81289.0120385027",
                "miles_per_hour": "50509.8308413685"
            },
            "miss_distance": {
                "astronomical": "0.3114602373",
                "lunar": "121.1580323097",
                "kilometers": "46593788.089774551",
                "miles": "28952037.3951727638"
            },
            "orbiting_body": "Earth"
        },
        {
            "close_approach_date": "2006-09-29",
            "close_approach_date_full": "2006-Sep-29 07:39",
            "epoch_date_close_approach": 1159515540000,
            "relative_velocity": {
                "kilometers_per_second": "19.7608881297",
                "kilometers_per_hour": "71139.1972670125",
                "miles_per_hour": "44203.1306573834"
            },
            "miss_distance": {
                "astronomical": "0.4970938234",
                "lunar": "193.3694973026",
                "kilometers": "74364177.170796158",
                "miles": "46207757.0117686604"
            },
            "orbiting_body": "Earth"
        },
        {
            "close_approach_date": "2007-02-13",
            "close_approach_date_full": "2007-Feb-13 21:12",
            "epoch_date_close_approach": 1171401120000,
            "relative_velocity": {
                "kilometers_per_second": "20.7412060452",
                "kilometers_per_hour": "74668.341762562",
                "miles_per_hour": "46396.0038024097"
            },
            "miss_distance": {
                "astronomical": "0.3336893393",
                "lunar": "129.8051529877",
                "kilometers": "49919214.400987291",
                "miles": "31018361.4882389758"
            },
            "orbiting_body": "Earth"
        },
        {
            "close_approach_date": "2049-02-14",
            "close_approach_date_full": "2049-Feb-14 00:32",
            "epoch_date_close_approach": 2496875520000,
            "relative_velocity": {
                "kilometers_per_second": "21.727935283",
                "kilometers_per_hour": "78220.5670187345",
                "miles_per_hour": "48603.218434502"
            },
            "miss_distance": {
                "astronomical": "0.3143140224",
                "lunar": "122.2681547136",
                "kilometers": "47020708.262172288",
                "miles": "29217313.2892940544"
            },
            "orbiting_body": "Earth"
        }
    ],
    "orbital_data": {
        "orbit_id": "17",
        "orbit_determination_date": "2017-04-06 09:06:58",
        "first_observation_date": "2007-02-18",
        "last_observation_date": "2007-04-14",
        "data_arc_in_days": 55,
        "observations_used": 71,
        "orbit_uncertainty": "6",
        "minimum_orbit_intersection": ".309049",
        "jupiter_tisserand_invariant": "3.004",
        "epoch_osculation": "2459000.5",
        "eccentricity": ".5938642939327684",
        "semi_major_axis": "2.443204310218703",
        "inclination": "37.57369574907474",
        "ascending_node_longitude": "159.8351221668317",
        "orbital_period": "1394.884041622848",
        "perihelion_distance": ".9922725075971764",
        "perihelion_argument": "282.226282332",
        "aphelion_distance": "3.894136112840229",
        "perihelion_time": "2459658.360071686089",
        "mean_anomaly": "190.2155457084032",
        "mean_motion": ".258085969340624",
        "equinox": "J2000",
        "orbit_class": {
            "orbit_class_type": "APO",
            "orbit_class_description": "Near-Earth asteroid orbits which cross the Earth’s orbit similar to that of 1862 Apollo",
            "orbit_class_range": "a (semi-major axis) > 1.0 AU; q (perihelion) < 1.017 AU"
        }
    },
    "is_sentry_object": false
}